norad_id,name,regime,epoch,line1,line2,inclination,eccentricity,mean_motion,raan,arg_pericenter,mean_anomaly
43231,O3B FM15,MEO,22131.51221359,1 43231U 18024A   22131.51221359 -.00000014  00000-0  00000-0 0    15\,2 43231   0.0453   7.3822 0002781  47.4658 305.1805  5.00115951 76104,0.0453,0.0002781,5.00115951,7.3822,47.4658,305.1805
43231,O3B FM15,MEO,22132.51166550,1 43231U 18024A   22132.51166550 -.00000012  00000-0  00000-0 0    15\,2 43231   0.0452   7.3718 0002784  48.4608 304.1966  5.00115979 76158,0.0452,0.0002784,5.00115979,7.3718,48.4608,304.1966
43231,O3B FM15,MEO,22132.71155594,1 43231U 18024A   22132.71155594 -.00000012  00000-0  00000-0 0    13\,2 43231   0.0452   7.3631 0002784  48.7148 303.9514  5.00115980 76163,0.0452,0.0002784,5.0011598,7.3631,48.7148,303.9514
43231,O3B FM15,MEO,22133.31122736,1 43231U 18024A   22133.31122736 -.00000012  00000-0  00000-0 0    12\,2 43231   0.0452   7.4225 0002786  49.2396 303.3676  5.00115972 76193,0.0452,0.0002786,5.00115972,7.4225,49.2396,303.3676
43231,O3B FM15,MEO,22134.11078944,1 43231U 18024A   22134.11078944 -.00000011  00000-0  00000+0 0  3631\,2 43231   0.0452   7.4684 0002788  50.0390 302.5228  5.00115944 76405,0.0452,0.0002788,5.00115944,7.4684,50.039,302.5228
43231,O3B FM15,MEO,22134.31067989,1 43231U 18024A   22134.31067989 -.00000011  00000-0  00000-0 0    10\,2 43231   0.0452   7.5184 0002787  50.0677 302.4441  5.00115939 76240,0.0452,0.0002787,5.00115939,7.5184,50.0677,302.4441
43231,O3B FM15,MEO,22135.51002239,1 43231U 18024A   22135.51002239 -.00000012  00000-0  00000-0 0    11\,2 43231   0.0451   7.4993 0002789  51.1879 301.3434  5.00115938 76300,0.0451,0.0002789,5.00115938,7.4993,51.1879,301.3434
43231,O3B FM15,MEO,22135.70991281,1 43231U 18024A   22135.70991281 -.00000012  00000-0  00000-0 0    16\,2 43231   0.0451   7.4949 0002789  51.3694 301.1663  5.00115936 76308,0.0451,0.0002789,5.00115936,7.4949,51.3694,301.1663
43231,O3B FM15,MEO,22136.10969362,1 43231U 18024A   22136.10969362 -.00000012  00000-0  00000-0 0    16\,2 43231   0.0451   7.5800 0002791  51.7441 300.7065  5.00115934 76334,0.0451,0.0002791,5.00115934,7.58,51.7441,300.7065
43231,O3B FM15,MEO,22137.30903598,1 43231U 18024A   22137.30903598 -.00000014  00000-0  00000-0 0    10\,2 43231   0.0450   7.6067 0002792  52.7878 299.6358  5.00115923 76390,0.045,0.0002792,5.00115923,7.6067,52.7878,299.6358
43231,O3B FM15,MEO,22137.70881677,1 43231U 18024A   22137.70881677 -.00000015  00000-0  00000-0 0    18\,2 43231   0.0450   7.6300 0002792  53.1192 299.2810  5.00115915 76417,0.045,0.0002792,5.00115915,7.63,53.1192,299.281
43231,O3B FM15,MEO,22138.30848775,1 43231U 18024A   22138.30848775 -.00000017  00000-0  00000-0 0    19\,2 43231   0.0450   7.6867 0002794  53.8092 298.5341  5.00115924 76447,0.045,0.0002794,5.00115924,7.6867,53.8092,298.5341
43231,O3B FM15,MEO,22138.50837814,1 43231U 18024A   22138.50837814 -.00000017  00000-0  00000-0 0    13\,2 43231   0.0450   7.6891 0002794  54.0016 298.3392  5.00115920 76454,0.045,0.0002794,5.0011592,7.6891,54.0016,298.3392
43231,O3B FM15,MEO,22139.50782973,1 43231U 18024A   22139.50782973 -.00000020  00000-0  00000-0 0    13\,2 43231   0.0449   7.7212 0002796  54.8627 297.4453  5.00115932 76505,0.0449,0.0002796,5.00115932,7.7212,54.8627,297.4453
43231,O3B FM15,MEO,22140.30739105,1 43231U 18024A   22140.30739105 -.00000021  00000-0  00000-0 0    13\,2 43231   0.0449   7.8310 0002797  55.5726 296.6253  5.00115941 76547,0.0449,0.0002797,5.00115941,7.831,55.5726,296.6253
43231,O3B FM15,MEO,22140.50728145,1 43231U 18024A   22140.50728145 -.00000022  00000-0  00000-0 0    18\,2 43231   0.0449   7.7897 0002797  55.7622 296.4769  5.00115939 76551,0.0449,0.0002797,5.00115939,7.7897,55.7622,296.4769
43231,O3B FM15,MEO,22141.10695250,1 43231U 18024A   22141.10695250 -.00000023  00000-0  00000-0 0    16\,2 43231   0.0449   7.8416 0002798  56.3174 295.8696  5.00115945 76581,0.0449,0.0002798,5.00115945,7.8416,56.3174,295.8696
43231,O3B FM15,MEO,22141.30684287,1 43231U 18024A   22141.30684287 -.00000023  00000-0  00000-0 0    16\,2 43231   0.0449   7.8738 0002798  56.5071 295.6476  5.00115947 76593,0.0449,0.0002798,5.00115947,7.8738,56.5071,295.6476
43231,O3B FM15,MEO,22141.70662380,1 43231U 18024A   22141.70662380 -.00000024  00000-0  00000-0 0    11\,2 43231   0.0448   7.8493 0002799  56.8830 295.2961  5.00115936 76613,0.0448,0.0002799,5.00115936,7.8493,56.883,295.2961
43231,O3B FM15,MEO,22142.10640459,1 43231U 18024A   22142.10640459 -.00000024  00000-0  00000-0 0    19\,2 43231   0.0448   7.8639 0002800  57.2589 294.9055  5.00115939 76639,0.0448,0.00028,5.00115939,7.8639,57.2589,294.9055
43231,O3B FM15,MEO,22142.70607585,1 43231U 18024A   22142.70607585 -.00000025  00000-0  00000-0 0    19\,2 43231   0.0448   7.8785 0002801  57.8447 294.3052  5.00115940 76667,0.0448,0.0002801,5.0011594,7.8785,57.8447,294.3052
43231,O3B FM15,MEO,22143.30574715,1 43231U 18024A   22143.30574715 -.00000025  00000-0  00000-0 0    14\,2 43231   0.0447   7.9283 0002802  58.4395 293.6606  5.00115945 76695,0.0447,0.0002802,5.00115945,7.9283,58.4395,293.6606
43231,O3B FM15,MEO,22144.30519951,1 43231U 18024A   22144.30519951 -.00000025  00000-0  00000-0 0    16\,2 43231   0.0447   7.9413 0002804  59.4487 292.6388  5.00115945 76747,0.0447,0.0002804,5.00115945,7.9413,59.4487,292.6388
43231,O3B FM15,MEO,22145.50454195,1 43231U 18024A   22145.50454195 -.00000025  00000-0  00000-0 0    17\,2 43231   0.0446   7.8914 0002805  60.5551 291.5828  5.00115983 76803,0.0446,0.0002805,5.00115983,7.8914,60.5551,291.5828
43231,O3B FM15,MEO,22145.70443235,1 43231U 18024A   22145.70443235 -.00000024  00000-0  00000-0 0    11\,2 43231   0.0446   7.9293 0002805  60.7638 291.3364  5.00115992 76816,0.0446,0.0002805,5.00115992,7.9293,60.7638,291.3364
43231,O3B FM15,MEO,22146.10421358,1 43231U 18024A   22146.10421358 -.00000024  00000-0  00000-0 0    18\,2 43231   0.0446   7.8698 0002806  61.2363 290.9236  5.00115973 76830,0.0446,0.0002806,5.00115973,7.8698,61.2363,290.9236
43231,O3B FM15,MEO,22146.50399416,1 43231U 18024A   22146.50399416 -.00000024  00000-0  00000-0 0    11\,2 43231   0.0446   7.8694 0002806  61.5568 290.6038  5.00116004 76851,0.0446,0.0002806,5.00116004,7.8694,61.5568,290.6038
43231,O3B FM15,MEO,22147.50344653,1 43231U 18024A   22147.50344653 -.00000024  00000-0  00000-0 0    15\,2 43231   0.0446   7.8974 0002807  62.4591 289.6739  5.00116013 76901,0.0446,0.0002807,5.00116013,7.8974,62.4591,289.6739
43231,O3B FM15,MEO,22147.70333697,1 43231U 18024A   22147.70333697 -.00000024  00000-0  00000-0 0    13\,2 43231   0.0446   7.8828 0002807  62.6388 289.5090  5.00116014 76916,0.0446,0.0002807,5.00116014,7.8828,62.6388,289.509
43231,O3B FM15,MEO,22148.30300830,1 43231U 18024A   22148.30300830 -.00000023  00000-0  00000-0 0    12\,2 43231   0.0445   7.9589 0002807  63.1731 288.8989  5.00116025 76942,0.0445,0.0002807,5.00116025,7.9589,63.1731,288.8989
43231,O3B FM15,MEO,22148.70278918,1 43231U 18024A   22148.70278918 -.00000023  00000-0  00000-0 0    17\,2 43231   0.0445   7.8848 0002808  63.5727 288.5736  5.00116028 76961,0.0445,0.0002808,5.00116028,7.8848,63.5727,288.5736
43231,O3B FM15,MEO,22149.50235092,1 43231U 18024A   22149.50235092 -.00000023  00000-0  00000-0 0    12\,2 43231   0.0445   7.9051 0002809  64.3425 287.7838  5.00116037 77003,0.0445,0.0002809,5.00116037,7.9051,64.3425,287.7838
43231,O3B FM15,MEO,22151.10147429,1 43231U 18024A   22151.10147429 -.00000023  00000-0  00000-0 0    17\,2 43231   0.0444   7.9477 0002811  65.8397 286.2446  5.00116045 77087,0.0444,0.0002811,5.00116045,7.9477,65.8397,286.2446
43231,O3B FM15,MEO,22151.50125454,1 43231U 18024A   22151.50125454 -.00000023  00000-0  00000-0 0    15\,2 43231   0.0444   7.9064 0002812  66.2310 285.8946  5.00116090 77103,0.0444,0.0002812,5.0011609,7.9064,66.231,285.8946
43231,O3B FM15,MEO,22152.30081612,1 43231U 18024A   22152.30081612 -.00000023  00000-0  00000-0 0    11\,2 43231   0.0444   7.9820 0002814  66.8920 285.1581  5.00116095 77145,0.0444,0.0002814,5.00116095,7.982,66.892,285.1581
43231,O3B FM15,MEO,22153.30026868,1 43231U 18024A   22153.30026868 -.00000022  00000-0  00000-0 0    13\,2 43231   0.0444   7.9736 0002815  67.8738 284.1848  5.00116053 77194,0.0444,0.0002815,5.00116053,7.9736,67.8738,284.1848
43231,O3B FM15,MEO,22153.70004953,1 43231U 18024A   22153.70004953 -.00000021  00000-0  00000-0 0    17\,2 43231   0.0444   7.9032 0002816  68.2966 283.8325  5.00116047 77214,0.0444,0.0002816,5.00116047,7.9032,68.2966,283.8325
43231,O3B FM15,MEO,22153.89993980,1 43231U 18024A   22153.89993980 -.00000021  00000-0  00000-0 0    14\,2 43231   0.0444   7.9415 0002816  68.4392 283.6516  5.00116057 77226,0.0444,0.0002816,5.00116057,7.9415,68.4392,283.6516
43231,O3B FM15,MEO,22154.69950154,1 43231U 18024A   22154.69950154 -.00000020  00000-0  00000-0 0    18\,2 43231   0.0443   7.9525 0002818  69.1696 282.9103  5.00116042 77266,0.0443,0.0002818,5.00116042,7.9525,69.1696,282.9103
43231,O3B FM15,MEO,22155.09928247,1 43231U 18024A   22155.09928247 -.00000019  00000-0  00000-0 0    19\,2 43231   0.0443   7.9736 0002819  69.5708 282.4881  5.00116029 77284,0.0443,0.0002819,5.00116029,7.9736,69.5708,282.4881
43231,O3B FM15,MEO,22156.69840555,1 43231U 18024A   22156.69840555 -.00000016  00000-0  00000-0 0    18\,2 43231   0.0442   7.9742 0002823  71.0647 280.9940  5.00116035 77360,0.0442,0.0002823,5.00116035,7.9742,71.0647,280.994
43231,O3B FM15,MEO,22156.89829599,1 43231U 18024A   22156.89829599 -.00000016  00000-0  00000-0 0    15\,2 43231   0.0442   7.9594 0002824  71.2677 280.8059  5.00116031 77378,0.0442,0.0002824,5.00116031,7.9594,71.2677,280.8059
43231,O3B FM15,MEO,22157.69785779,1 43231U 18024A   22157.69785779 -.00000014  00000-0  00000-0 0    13\,2 43231   0.0441   7.8277 0002830  72.0469 280.1587  5.00116094 77412,0.0441,0.000283,5.00116094,7.8277,72.0469,280.1587
